OBJECT_NAME,OBJECT_ID,EPOCH,MEAN_MOTION,ECCENTRICITY,INCLINATION,RA_OF_ASC_NODE,ARG_OF_PERICENTER,MEAN_ANOMALY,EPHEMERIS_TYPE,CLASSIFICATION_TYPE,NORAD_CAT_ID,ELEMENT_SET_NO,REV_AT_EPOCH,BSTAR,MEAN_MOTION_DOT,MEAN_MOTION_DDOT
FLOCK 4BE-30,2024-149AH,2026-05-09T22:57:30.866400,15.48320623,.00024014,97.3777,214.4587,161.6601,198.4736,0,U,60499,999,9584,.12954436E-2,.68871E-3,0
NUSAT-49 (KLARA DAN VON NEUMANN),2024-149AJ,2026-05-09T17:54:21.854592,15.30207384,.00041079,97.3773,211.2938,80.4598,279.7107,0,U,60500,999,9625,.22418036E-3,.6477E-4,0
FLOCK 4BE-11,2024-149AK,2026-05-09T23:14:08.875392,15.41718127,.00045866,97.3693,213.7154,70.3956,289.7786,0,U,60501,999,9646,.30128838E-3,.12646E-3,0
YAM-7,2024-149AN,2026-05-09T18:29:09.957696,15.31287528,.00049351,97.3780,210.1922,80.3515,279.8284,0,U,60504,999,9617,.18919399E-3,.5641E-4,0
FLOCK 4BE-24,2024-149AP,2026-05-09T22:54:59.339808,15.41663603,.00047149,97.3711,213.9488,78.4726,281.7050,0,U,60505,999,9647,.32512327E-3,.1363E-3,0
LUR-1,2024-149AQ,2026-05-09T18:48:04.324896,15.29601987,.00056812,97.3737,208.9045,86.7400,273.4491,0,U,60506,999,9610,.18061142E-3,.5107E-4,0
TANAGER-1,2024-149AR,2026-05-09T19:28:02.682624,15.44550141,.00064563,97.3250,223.9203,83.5467,276.6517,0,U,60507,999,9711,.20971125E-3,.9656E-4,0
EAGLEEYE,2024-149AS,2026-05-09T20:50:46.260672,15.64873946,.00020477,97.3720,221.2887,60.9675,299.1790,0,U,60508,999,9693,.51585844E-3,.50432E-3,0
FLOCK 4BE-29,2024-149AT,2026-05-09T19:11:51.025632,15.42898196,.00040198,97.3799,215.1351,88.6887,271.4821,0,U,60509,999,9649,.26932478E-3,.11748E-3,0
TRANSPORTER-11 OBJECT AU,2024-149AU,2026-05-09T18:39:44.246016,15.39160447,.00048846,97.3723,213.2253,78.7485,281.4309,0,U,60510,999,9640,.27900252E-3,.10753E-3,0
FLOCK 4BE-2,2024-149AV,2026-05-09T18:59:05.281440,15.48879506,.00038056,97.3816,216.1178,88.4260,271.7426,0,U,60511,999,9655,.63446538E-3,.34201E-3,0
FLOCK 4BE-13,2024-149AW,2026-05-09T18:54:11.416896,15.40865058,.00049458,97.3713,213.8327,62.7608,297.4142,0,U,60512,999,9645,.25520363E-3,.10397E-3,0
FLOCK 4BE-27,2024-149AX,2026-05-09T18:36:42.468192,15.33785339,.00054454,97.3819,211.6292,87.1366,273.0500,0,U,60513,999,9625,.20535332E-3,.6632E-4,0
FLOCK 4BE-9,2024-149AY,2026-05-09T18:11:36.079008,15.39653739,.0004133,97.3782,213.6936,91.1307,269.0413,0,U,60514,999,9640,.30173677E-3,.11826E-3,0
FLOCK 4BE-6,2024-149BA,2026-05-09T18:11:13.358400,15.38536023,.00048673,97.3785,213.1207,87.1127,273.0675,0,U,60516,999,9636,.29163313E-3,.11016E-3,0
FLOCK 4BE-14,2024-149BB,2026-05-09T18:35:53.345472,15.39821894,.00057081,97.3689,213.2444,84.5283,275.6614,0,U,60517,999,9641,.28831269E-3,.11361E-3,0
FLOCK 4BE-1,2024-149BC,2026-05-09T23:01:39.464256,15.41333983,.00052454,97.3774,214.5739,84.2305,275.9540,0,U,60518,999,9648,.28676906E-3,.11879E-3,0
FLOCK 4BE-28,2024-149BD,2026-05-09T18:29:55.939776,15.43577931,.00053424,97.3741,214.9906,79.4180,280.7670,0,U,60519,999,9651,.31877062E-3,.1425E-3,0
IPERDRONE.0,2024-149BE,2026-05-09T17:22:23.276928,15.61667703,.00019253,97.3770,221.2016,52.2011,307.9421,0,U,60520,999,9690,.57443438E-3,.49559E-3,0
TRANSPORTER-11 OBJECT BF,2024-149BF,2026-05-09T19:27:24.725376,15.71997364,.00006427,97.3777,223.2161,0.5134,359.6129,0,U,60521,999,9703,.73408134E-3,.96529E-3,0
CONNECTA IOT-2,2024-149BG,2026-05-09T18:20:56.535072,15.23646056,.00081849,97.3838,208.5021,99.5916,260.6246,0,U,60522,999,9604,.15919183E-3,.3748E-4,0
PTD-R (TYVAK-0127),2024-149BH,2026-05-09T19:12:53.726112,15.87044142,.00011008,97.3758,227.1635,194.2373,165.8868,0,U,60523,999,9731,.53523859E-3,.13954E-2,0
CONNECTA IOT-4,2024-149BJ,2026-05-09T18:36:44.863200,15.40754861,.00063526,97.3790,213.7357,77.1408,283.0547,0,U,60524,999,9641,.34568484E-3,.14072E-3,0
ORESAT0.5,2024-149BK,2026-05-09T22:53:06.366624,15.43671835,.00063292,97.3716,215.4139,67.2341,292.9575,0,U,60525,999,9657,.30668163E-3,.13752E-3,0
DEIMOS,2024-149BL,2026-05-09T18:30:09.142560,15.42876914,.00065168,97.3770,215.3864,73.2110,286.9852,0,U,60526,999,9652,.32487632E-3,.14189E-3,0
CUAVA-2,2024-149BM,2026-05-09T23:07:49.321056,15.35243528,.00079847,97.3721,211.4455,75.8914,284.3216,0,U,60527,999,9630,.26009884E-3,.8829E-4,0
ERNST,2024-149BN,2026-05-09T19:12:06.402240,15.38204187,.00074009,97.3800,213.2640,80.0251,280.1829,0,U,60528,999,9637,.27350643E-3,.10219E-3,0
TORO,2024-149BQ,2026-05-09T22:08:42.257184,14.96281889,.00016253,97.6792,205.3075,93.9002,266.2405,0,U,60530,999,9423,.79679081E-4,.843E-5,0
HYPSO-2,2024-149BR,2026-05-09T22:38:47.173056,14.98599265,.00019752,97.6811,206.7647,116.0574,244.0852,0,U,60531,999,9432,.14822944E-3,.1719E-4,0
